{"type":"FeatureCollection","features":[{"type":"Feature","geometry":{"type":"Point","coordinates":[-93.953025,29.879656]},"properties":{"name":"Motiva Port Arthur Refinery","kind":"refinery","city":"Port Arthur","note":"656,400 bbl/d \u2014 the largest refinery in the United States","src":"EPA ECHO / FRS location; capacity per EIA"}},{"type":"Feature","geometry":{"type":"Point","coordinates":[-94.071388,30.065833]},"properties":{"name":"ExxonMobil Beaumont Refinery","kind":"refinery","city":"Beaumont","note":"612,000 bbl/d \u2014 4th largest in the United States","src":"EPA ECHO / FRS location; capacity per EIA"}},{"type":"Feature","geometry":{"type":"Point","coordinates":[-93.968333,29.868333]},"properties":{"name":"Valero Port Arthur Refinery","kind":"refinery","city":"Port Arthur","note":"385,000 bbl/d \u2014 9th largest in the United States","src":"EPA ECHO / FRS location; capacity per EIA"}},{"type":"Feature","geometry":{"type":"Point","coordinates":[-93.897484,29.957935]},"properties":{"name":"TotalEnergies Port Arthur Refinery","kind":"refinery","city":"Port Arthur","note":"","src":"EPA ECHO / FRS location; capacity per EIA"}},{"type":"Feature","geometry":{"type":"Point","coordinates":[-93.646827,29.768841]},"properties":{"name":"Johnson Bayou TO Sabine Pass System","kind":"polpump","city":"Grand Chenier","note":"PLAINS PIPELINE, L.P.","src":"HIFLD POL Pumping Stations (lab archive)"}},{"type":"Feature","geometry":{"type":"Point","coordinates":[-94.05209,30.013891]},"properties":{"name":"Beaumont Pump Station","kind":"polpump","city":"Nederland","note":"ENTERPRISE PRODUCTS OPERATING LLC \u00b7 REFINED PRODUCT","src":"HIFLD POL Pumping Stations (lab archive)"}},{"type":"Feature","geometry":{"type":"Point","coordinates":[-94.0569,29.975822]},"properties":{"name":"Hebert Station","kind":"polpump","city":"Beaumont","note":"COLONIAL PIPELINE CO \u00b7 REFINED PRODUCT","src":"HIFLD POL Pumping Stations (lab archive)"}},{"type":"Feature","geometry":{"type":"Point","coordinates":[-93.994383,29.886246]},"properties":{"name":"North Port Arthur Station","kind":"polpump","city":"Port Arthur","note":"COLONIAL PIPELINE CO \u00b7 REFINED PRODUCT","src":"HIFLD POL Pumping Stations (lab archive)"}},{"type":"Feature","geometry":{"type":"Point","coordinates":[-94.197222,30.159053]},"properties":{"name":"Beaumont","kind":"polpump","city":"Beaumont","note":"DOW PIPELINE CO \u00b7 NGL","src":"HIFLD POL Pumping Stations (lab archive)"}},{"type":"Feature","geometry":{"type":"Point","coordinates":[-94.006338,29.900239]},"properties":{"name":"Port Arthur","kind":"polpump","city":"Port Arthur","note":"EXPLORER PIPELINE CO \u00b7 REFINED PRODUCT","src":"HIFLD POL Pumping Stations (lab archive)"}},{"type":"Feature","geometry":{"type":"Point","coordinates":[-93.936432,29.982595]},"properties":{"name":"Port Neches","kind":"polpump","city":"Port Neches","note":"EXPLORER PIPELINE CO \u00b7 REFINED PRODUCT","src":"HIFLD POL Pumping Stations (lab archive)"}},{"type":"Feature","geometry":{"type":"Point","coordinates":[-94.081956,30.027673]},"properties":{"name":"Spindletop","kind":"polpump","city":"Beaumont","note":"EXXONMOBIL PIPELINE CO \u00b7 REFINED PRODUCT","src":"HIFLD POL Pumping Stations (lab archive)"}},{"type":"Feature","geometry":{"type":"Point","coordinates":[-94.002633,29.989462]},"properties":{"name":"Nederland","kind":"polpump","city":"Nederland","note":"SUNOCO PIPELINE L.P. \u00b7 CRUDE","src":"HIFLD POL Pumping Stations (lab archive)"}},{"type":"Feature","geometry":{"type":"Point","coordinates":[-93.925345,29.962616]},"properties":{"name":"Groves","kind":"polpump","city":"Groves","note":"UCAR PIPELINE INCORPORATED \u00b7 REFINED PRODUCT","src":"HIFLD POL Pumping Stations (lab archive)"}},{"type":"Feature","geometry":{"type":"Point","coordinates":[-94.053154,30.013607]},"properties":{"name":"Beaumont","kind":"polpump","city":"Nederland","note":"ENTERPRISE PRODUCTS OPERATING LLC \u00b7 REFINED PRODUCT","src":"HIFLD POL Pumping Stations (lab archive)"}},{"type":"Feature","geometry":{"type":"Point","coordinates":[-94.067703,30.061407]},"properties":{"name":"Beaumont - Exxon Refinery","kind":"polpump","city":"Port Arthur","note":"COLONIAL PIPELINE COMPANY","src":"HIFLD POL Pumping Stations (lab archive)"}},{"type":"Feature","geometry":{"type":"Point","coordinates":[-94.05717,30.010573]},"properties":{"name":"Port Arthur Teppco Injection","kind":"polpump","city":"Port Arthur","note":"COLONIAL PIPELINE COMPANY","src":"HIFLD POL Pumping Stations (lab archive)"}},{"type":"Feature","geometry":{"type":"Point","coordinates":[-93.969331,29.871345]},"properties":{"name":"Port Arthur Products Junction","kind":"polpump","city":"Port Arthur","note":"COLONIAL PIPELINE COMPANY","src":"HIFLD POL Pumping Stations (lab archive)"}},{"type":"Feature","geometry":{"type":"Point","coordinates":[-93.96792,29.895098]},"properties":{"name":"Port Arthur","kind":"polpump","city":"Port Arthur","note":"FLINT HILLS RESOURCES, L.P. \u00b7 REFINED PRODUCT","src":"HIFLD POL Pumping Stations (lab archive)"}},{"type":"Feature","geometry":{"type":"Point","coordinates":[-93.93661,29.975262]},"properties":{"name":"Port Neches","kind":"polpump","city":"Port Neches","note":"SHELL PIPELINE CO., L.P. \u00b7 REFINED PRODUCT","src":"HIFLD POL Pumping Stations (lab archive)"}},{"type":"Feature","geometry":{"type":"Point","coordinates":[-94.07605,29.99696]},"properties":{"name":"Valero Lucas Pump Station","kind":"polpump","city":"Beaumont","note":"VALERO PARTNERS OPERATING CO. LLC \u00b7 CRUDE","src":"HIFLD POL Pumping Stations (lab archive)"}},{"type":"Feature","geometry":{"type":"Point","coordinates":[-93.991963,29.994882]},"properties":{"name":"Nederland Pump Station (Sunoco)","kind":"polpump","city":"Nederland","note":"SUNOCO PIPELINE L.P. \u00b7 CRUDE","src":"HIFLD POL Pumping Stations (lab archive)"}},{"type":"Feature","geometry":{"type":"Point","coordinates":[-93.986508,29.991641]},"properties":{"name":"Nederland Pump Station (Delek)","kind":"polpump","city":"Nederland","note":"DELEK LOGISTICS OPERATING, LLC. \u00b7 CRUDE","src":"HIFLD POL Pumping Stations (lab archive)"}},{"type":"Feature","geometry":{"type":"Point","coordinates":[-94.066472,30.042961]},"properties":{"name":"Mobil Chemical BMCP LNVA Pump Station","kind":"polpump","city":"Beaumont","note":"EXXONMOBIL OIL CORPORATION \u00b7 REFINED PRODUCT","src":"HIFLD POL Pumping Stations (lab archive)"}},{"type":"Feature","geometry":{"type":"Point","coordinates":[-94.348844,29.77771]},"properties":{"name":"Orphan well (API 24530016)","kind":"orphanwell","city":"","note":"Unplugged well with no active operator \u2014 a contamination pathway when flooded","src":"Texas Railroad Commission"}},{"type":"Feature","geometry":{"type":"Point","coordinates":[-94.306691,29.942269]},"properties":{"name":"Orphan well (API 24530453)","kind":"orphanwell","city":"","note":"Unplugged well with no active operator \u2014 a contamination pathway when flooded","src":"Texas Railroad Commission"}},{"type":"Feature","geometry":{"type":"Point","coordinates":[-94.189132,29.59226]},"properties":{"name":"Orphan well (API 60630179)","kind":"orphanwell","city":"","note":"Unplugged well with no active operator \u2014 a contamination pathway when flooded","src":"Texas Railroad Commission"}},{"type":"Feature","geometry":{"type":"Point","coordinates":[-94.150091,29.546018]},"properties":{"name":"Orphan well (API 70830335)","kind":"orphanwell","city":"","note":"Unplugged well with no active operator \u2014 a contamination pathway when flooded","src":"Texas Railroad Commission"}},{"type":"Feature","geometry":{"type":"Point","coordinates":[-94.116587,30.186928]},"properties":{"name":"Orphan well (API 36130727)","kind":"orphanwell","city":"","note":"Unplugged well with no active operator \u2014 a contamination pathway when flooded","src":"Texas Railroad Commission"}},{"type":"Feature","geometry":{"type":"Point","coordinates":[-94.138899,29.535456]},"properties":{"name":"Orphan well (API 70830316)","kind":"orphanwell","city":"","note":"Unplugged well with no active operator \u2014 a contamination pathway when flooded","src":"Texas Railroad Commission"}},{"type":"Feature","geometry":{"type":"Point","coordinates":[-94.111972,29.622687]},"properties":{"name":"Orphan well (API 60630177)","kind":"orphanwell","city":"","note":"Unplugged well with no active operator \u2014 a contamination pathway when flooded","src":"Texas Railroad Commission"}},{"type":"Feature","geometry":{"type":"Point","coordinates":[-93.843517,30.055705]},"properties":{"name":"Orphan well (API 36130800)","kind":"orphanwell","city":"","note":"Unplugged well with no active operator \u2014 a contamination pathway when flooded","src":"Texas Railroad Commission"}},{"type":"Feature","geometry":{"type":"Point","coordinates":[-93.842322,30.057827]},"properties":{"name":"Orphan well (API 36130830)","kind":"orphanwell","city":"","note":"Unplugged well with no active operator \u2014 a contamination pathway when flooded","src":"Texas Railroad Commission"}},{"type":"Feature","geometry":{"type":"Point","coordinates":[-94.189295,30.144807]},"properties":{"name":"Orphan well (API 24532104)","kind":"orphanwell","city":"","note":"Unplugged well with no active operator \u2014 a contamination pathway when flooded","src":"Texas Railroad Commission"}},{"type":"Feature","geometry":{"type":"Point","coordinates":[-94.134129,29.563188]},"properties":{"name":"Orphan well (API 70830315)","kind":"orphanwell","city":"","note":"Unplugged well with no active operator \u2014 a contamination pathway when flooded","src":"Texas Railroad Commission"}},{"type":"Feature","geometry":{"type":"Point","coordinates":[-94.12398,29.623621]},"properties":{"name":"Orphan well (API 60630167)","kind":"orphanwell","city":"","note":"Unplugged well with no active operator \u2014 a contamination pathway when flooded","src":"Texas Railroad Commission"}},{"type":"Feature","geometry":{"type":"Point","coordinates":[-94.113319,29.625356]},"properties":{"name":"Orphan well (API 60630174)","kind":"orphanwell","city":"","note":"Unplugged well with no active operator \u2014 a contamination pathway when flooded","src":"Texas Railroad Commission"}},{"type":"Feature","geometry":{"type":"Point","coordinates":[-94.065025,30.186072]},"properties":{"name":"Orphan well (API 36130710)","kind":"orphanwell","city":"","note":"Unplugged well with no active operator \u2014 a contamination pathway when flooded","src":"Texas Railroad Commission"}},{"type":"Feature","geometry":{"type":"Point","coordinates":[-93.847804,30.056176]},"properties":{"name":"Orphan well (API 36130819)","kind":"orphanwell","city":"","note":"Unplugged well with no active operator \u2014 a contamination pathway when flooded","src":"Texas Railroad Commission"}},{"type":"Feature","geometry":{"type":"Point","coordinates":[-93.845218,30.055461]},"properties":{"name":"Orphan well (API 36130817)","kind":"orphanwell","city":"","note":"Unplugged well with no active operator \u2014 a contamination pathway when flooded","src":"Texas Railroad Commission"}},{"type":"Feature","geometry":{"type":"Point","coordinates":[-93.843271,30.056324]},"properties":{"name":"Orphan well (API 36130839)","kind":"orphanwell","city":"","note":"Unplugged well with no active operator \u2014 a contamination pathway when flooded","src":"Texas Railroad Commission"}},{"type":"Feature","geometry":{"type":"Point","coordinates":[-94.192397,29.892444]},"properties":{"name":"Orphan well (API 24532221)","kind":"orphanwell","city":"","note":"Unplugged well with no active operator \u2014 a contamination pathway when flooded","src":"Texas Railroad Commission"}},{"type":"Feature","geometry":{"type":"Point","coordinates":[-94.130384,29.525233]},"properties":{"name":"Orphan well (API 70830323)","kind":"orphanwell","city":"","note":"Unplugged well with no active operator \u2014 a contamination pathway when flooded","src":"Texas Railroad Commission"}},{"type":"Feature","geometry":{"type":"Point","coordinates":[-94.1239,29.620117]},"properties":{"name":"Orphan well (API 60630172)","kind":"orphanwell","city":"","note":"Unplugged well with no active operator \u2014 a contamination pathway when flooded","src":"Texas Railroad Commission"}},{"type":"Feature","geometry":{"type":"Point","coordinates":[-94.117969,29.524488]},"properties":{"name":"Orphan well (API 70830353)","kind":"orphanwell","city":"","note":"Unplugged well with no active operator \u2014 a contamination pathway when flooded","src":"Texas Railroad Commission"}},{"type":"Feature","geometry":{"type":"Point","coordinates":[-94.112586,29.626938]},"properties":{"name":"Orphan well (API 60630171)","kind":"orphanwell","city":"","note":"Unplugged well with no active operator \u2014 a contamination pathway when flooded","src":"Texas Railroad Commission"}},{"type":"Feature","geometry":{"type":"Point","coordinates":[-94.080647,30.010088]},"properties":{"name":"Orphan well (API 24501023)","kind":"orphanwell","city":"","note":"Unplugged well with no active operator \u2014 a contamination pathway when flooded","src":"Texas Railroad Commission"}},{"type":"Feature","geometry":{"type":"Point","coordinates":[-93.844629,30.05542]},"properties":{"name":"Orphan well (API 36130802)","kind":"orphanwell","city":"","note":"Unplugged well with no active operator \u2014 a contamination pathway when flooded","src":"Texas Railroad Commission"}},{"type":"Feature","geometry":{"type":"Point","coordinates":[-94.352307,29.827604]},"properties":{"name":"Orphan well (API 24581073)","kind":"orphanwell","city":"","note":"Unplugged well with no active operator \u2014 a contamination pathway when flooded","src":"Texas Railroad Commission"}},{"type":"Feature","geometry":{"type":"Point","coordinates":[-94.352732,29.831376]},"properties":{"name":"Orphan well (API 24502574)","kind":"orphanwell","city":"","note":"Unplugged well with no active operator \u2014 a contamination pathway when flooded","src":"Texas Railroad Commission"}},{"type":"Feature","geometry":{"type":"Point","coordinates":[-94.297257,30.198011]},"properties":{"name":"Orphan well (API 19932161)","kind":"orphanwell","city":"","note":"Unplugged well with no active operator \u2014 a contamination pathway when flooded","src":"Texas Railroad Commission"}},{"type":"Feature","geometry":{"type":"Point","coordinates":[-94.12409,29.628929]},"properties":{"name":"Orphan well (API 60630169)","kind":"orphanwell","city":"","note":"Unplugged well with no active operator \u2014 a contamination pathway when flooded","src":"Texas Railroad Commission"}},{"type":"Feature","geometry":{"type":"Point","coordinates":[-94.115656,29.526626]},"properties":{"name":"Orphan well (API 70830046)","kind":"orphanwell","city":"","note":"Unplugged well with no active operator \u2014 a contamination pathway when flooded","src":"Texas Railroad Commission"}},{"type":"Feature","geometry":{"type":"Point","coordinates":[-94.123247,29.541015]},"properties":{"name":"Orphan well (API 70830327)","kind":"orphanwell","city":"","note":"Unplugged well with no active operator \u2014 a contamination pathway when flooded","src":"Texas Railroad Commission"}},{"type":"Feature","geometry":{"type":"Point","coordinates":[-93.85213,30.076291]},"properties":{"name":"Orphan well (API 36130436)","kind":"orphanwell","city":"","note":"Unplugged well with no active operator \u2014 a contamination pathway when flooded","src":"Texas Railroad Commission"}},{"type":"Feature","geometry":{"type":"Point","coordinates":[-94.187975,30.143074]},"properties":{"name":"Orphan well (API 24532104)","kind":"orphanwell","city":"","note":"Unplugged well with no active operator \u2014 a contamination pathway when flooded","src":"Texas Railroad Commission"}},{"type":"Feature","geometry":{"type":"Point","coordinates":[-94.191267,30.148013]},"properties":{"name":"Orphan well (API 24532325)","kind":"orphanwell","city":"","note":"Unplugged well with no active operator \u2014 a contamination pathway when flooded","src":"Texas Railroad Commission"}},{"type":"Feature","geometry":{"type":"Point","coordinates":[-94.12926,29.533562]},"properties":{"name":"Orphan well (API 70830318)","kind":"orphanwell","city":"","note":"Unplugged well with no active operator \u2014 a contamination pathway when flooded","src":"Texas Railroad Commission"}},{"type":"Feature","geometry":{"type":"Point","coordinates":[-94.077124,30.175066]},"properties":{"name":"Orphan well (API 36130751)","kind":"orphanwell","city":"","note":"Unplugged well with no active operator \u2014 a contamination pathway when flooded","src":"Texas Railroad Commission"}},{"type":"Feature","geometry":{"type":"Point","coordinates":[-94.007315,29.969633]},"properties":{"name":"Orphan well (API 24532312)","kind":"orphanwell","city":"","note":"Unplugged well with no active operator \u2014 a contamination pathway when flooded","src":"Texas Railroad Commission"}},{"type":"Feature","geometry":{"type":"Point","coordinates":[-93.899274,29.873784]},"properties":{"name":"Orphan well (API 24532493)","kind":"orphanwell","city":"","note":"Unplugged well with no active operator \u2014 a contamination pathway when flooded","src":"Texas Railroad Commission"}},{"type":"Feature","geometry":{"type":"Point","coordinates":[-93.844195,30.082941]},"properties":{"name":"Orphan well (API 36130832)","kind":"orphanwell","city":"","note":"Unplugged well with no active operator \u2014 a contamination pathway when flooded","src":"Texas Railroad Commission"}},{"type":"Feature","geometry":{"type":"Point","coordinates":[-93.796989,30.137154]},"properties":{"name":"Orphan well (API 36130910)","kind":"orphanwell","city":"","note":"Unplugged well with no active operator \u2014 a contamination pathway when flooded","src":"Texas Railroad Commission"}},{"type":"Feature","geometry":{"type":"Point","coordinates":[-94.354642,29.829705]},"properties":{"name":"Orphan well (API 24502573)","kind":"orphanwell","city":"","note":"Unplugged well with no active operator \u2014 a contamination pathway when flooded","src":"Texas Railroad Commission"}},{"type":"Feature","geometry":{"type":"Point","coordinates":[-94.146509,29.549856]},"properties":{"name":"Orphan well (API 70800112)","kind":"orphanwell","city":"","note":"Unplugged well with no active operator \u2014 a contamination pathway when flooded","src":"Texas Railroad Commission"}},{"type":"Feature","geometry":{"type":"Point","coordinates":[-94.142725,29.551944]},"properties":{"name":"Orphan well (API 70800113)","kind":"orphanwell","city":"","note":"Unplugged well with no active operator \u2014 a contamination pathway when flooded","src":"Texas Railroad Commission"}},{"type":"Feature","geometry":{"type":"Point","coordinates":[-94.103296,30.193971]},"properties":{"name":"Orphan well (API 36130719)","kind":"orphanwell","city":"","note":"Unplugged well with no active operator \u2014 a contamination pathway when flooded","src":"Texas Railroad Commission"}},{"type":"Feature","geometry":{"type":"Point","coordinates":[-94.124877,29.622585]},"properties":{"name":"Orphan well (API 60630161)","kind":"orphanwell","city":"","note":"Unplugged well with no active operator \u2014 a contamination pathway when flooded","src":"Texas Railroad Commission"}},{"type":"Feature","geometry":{"type":"Point","coordinates":[-94.113588,29.625912]},"properties":{"name":"Orphan well (API 60630173)","kind":"orphanwell","city":"","note":"Unplugged well with no active operator \u2014 a contamination pathway when flooded","src":"Texas Railroad Commission"}},{"type":"Feature","geometry":{"type":"Point","coordinates":[-94.093088,29.522632]},"properties":{"name":"Orphan well (API 70830385)","kind":"orphanwell","city":"","note":"Unplugged well with no active operator \u2014 a contamination pathway when flooded","src":"Texas Railroad Commission"}},{"type":"Feature","geometry":{"type":"Point","coordinates":[-93.895947,29.871777]},"properties":{"name":"Orphan well (API 24532485)","kind":"orphanwell","city":"","note":"Unplugged well with no active operator \u2014 a contamination pathway when flooded","src":"Texas Railroad Commission"}},{"type":"Feature","geometry":{"type":"Point","coordinates":[-93.895473,29.876684]},"properties":{"name":"Orphan well (API 24532548)","kind":"orphanwell","city":"","note":"Unplugged well with no active operator \u2014 a contamination pathway when flooded","src":"Texas Railroad Commission"}},{"type":"Feature","geometry":{"type":"Point","coordinates":[-93.843718,30.056251]},"properties":{"name":"Orphan well (API 36130801)","kind":"orphanwell","city":"","note":"Unplugged well with no active operator \u2014 a contamination pathway when flooded","src":"Texas Railroad Commission"}},{"type":"Feature","geometry":{"type":"Point","coordinates":[-94.139576,29.53389]},"properties":{"name":"Orphan well (API 70830316)","kind":"orphanwell","city":"","note":"Unplugged well with no active operator \u2014 a contamination pathway when flooded","src":"Texas Railroad Commission"}},{"type":"Feature","geometry":{"type":"Point","coordinates":[-94.125166,29.620093]},"properties":{"name":"Orphan well (API 60630165)","kind":"orphanwell","city":"","note":"Unplugged well with no active operator \u2014 a contamination pathway when flooded","src":"Texas Railroad Commission"}},{"type":"Feature","geometry":{"type":"Point","coordinates":[-94.111337,29.524785]},"properties":{"name":"Orphan well (API 70830347)","kind":"orphanwell","city":"","note":"Unplugged well with no active operator \u2014 a contamination pathway when flooded","src":"Texas Railroad Commission"}},{"type":"Feature","geometry":{"type":"Point","coordinates":[-93.854344,30.072258]},"properties":{"name":"Orphan well (API 36100890)","kind":"orphanwell","city":"","note":"Unplugged well with no active operator \u2014 a contamination pathway when flooded","src":"Texas Railroad Commission"}},{"type":"Feature","geometry":{"type":"Point","coordinates":[-93.840588,30.077838]},"properties":{"name":"Orphan well (API 36130603)","kind":"orphanwell","city":"","note":"Unplugged well with no active operator \u2014 a contamination pathway when flooded","src":"Texas Railroad Commission"}},{"type":"Feature","geometry":{"type":"Point","coordinates":[-93.713979,30.221277]},"properties":{"name":"Orphan well (API 36130960)","kind":"orphanwell","city":"","note":"Unplugged well with no active operator \u2014 a contamination pathway when flooded","src":"Texas Railroad Commission"}},{"type":"Feature","geometry":{"type":"Point","coordinates":[-94.115325,30.190181]},"properties":{"name":"Orphan well (API 36130834)","kind":"orphanwell","city":"","note":"Unplugged well with no active operator \u2014 a contamination pathway when flooded","src":"Texas Railroad Commission"}},{"type":"Feature","geometry":{"type":"Point","coordinates":[-94.110103,30.19129]},"properties":{"name":"Orphan well (API 36130797)","kind":"orphanwell","city":"","note":"Unplugged well with no active operator \u2014 a contamination pathway when flooded","src":"Texas Railroad Commission"}},{"type":"Feature","geometry":{"type":"Point","coordinates":[-94.14058,29.54772]},"properties":{"name":"Orphan well (API 70800094)","kind":"orphanwell","city":"","note":"Unplugged well with no active operator \u2014 a contamination pathway when flooded","src":"Texas Railroad Commission"}},{"type":"Feature","geometry":{"type":"Point","coordinates":[-94.134793,29.550621]},"properties":{"name":"Orphan well (API 70830322)","kind":"orphanwell","city":"","note":"Unplugged well with no active operator \u2014 a contamination pathway when flooded","src":"Texas Railroad Commission"}},{"type":"Feature","geometry":{"type":"Point","coordinates":[-94.119779,29.619561]},"properties":{"name":"Orphan well (API 60630170)","kind":"orphanwell","city":"","note":"Unplugged well with no active operator \u2014 a contamination pathway when flooded","src":"Texas Railroad Commission"}},{"type":"Feature","geometry":{"type":"Point","coordinates":[-94.113218,29.526278]},"properties":{"name":"Orphan well (API 70830032)","kind":"orphanwell","city":"","note":"Unplugged well with no active operator \u2014 a contamination pathway when flooded","src":"Texas Railroad Commission"}},{"type":"Feature","geometry":{"type":"Point","coordinates":[-93.84361,30.055586]},"properties":{"name":"Orphan well (API 36130799)","kind":"orphanwell","city":"","note":"Unplugged well with no active operator \u2014 a contamination pathway when flooded","src":"Texas Railroad Commission"}},{"type":"Feature","geometry":{"type":"Point","coordinates":[-93.752541,30.243081]},"properties":{"name":"Orphan well (API 36130611)","kind":"orphanwell","city":"","note":"Unplugged well with no active operator \u2014 a contamination pathway when flooded","src":"Texas Railroad Commission"}}]}