{"type":"FeatureCollection","features":[{"type":"Feature","geometry":{"type":"Point","coordinates":[-93.818305,30.039846]},"properties":{"name":"City of Bridge City Waste Water Treatment Plant","kind":"wastewater","city":"Bridge City","src":"EPA ECHO / FRS","rid":"110071997525","pub":{"ike_historical":1.03}}},{"type":"Feature","geometry":{"type":"Point","coordinates":[-93.91372,29.9254]},"properties":{"name":"City of Port Arthur (water Purification Plant)","kind":"water","city":"Port Arthur","src":"EPA ECHO / FRS","rid":"110000501038","exp":{"harvey_historical":0.0,"harvey_future":0.0,"rita_historical":0.0,"rita_future":0.71,"ike_historical":0.0,"ike_future":0.0},"pub":{"ike_historical":0.3,"rita_historical":0.18}}},{"type":"Feature","geometry":{"type":"Point","coordinates":[-94.175224,29.917469]},"properties":{"name":"West Jefferson County MWD Water Treatment Plant","kind":"water","city":"Beaumont","src":"EPA ECHO / FRS","rid":"110035844682","exp":{"harvey_historical":0.0,"harvey_future":0.0,"rita_historical":0.0,"rita_future":0.0,"ike_historical":0.0,"ike_future":0.0}}},{"type":"Feature","geometry":{"type":"Point","coordinates":[-93.941944,29.954167]},"properties":{"name":"City of Port Neches Wastewater Treatment Plant","kind":"wastewater","city":"Port Neches","src":"EPA ECHO / FRS","rid":"110000737702","exp":{"harvey_historical":0.0,"harvey_future":0.0,"rita_historical":0.0,"rita_future":0.45,"ike_historical":0.0,"ike_future":0.0},"pub":{"ike_historical":0.37,"rita_historical":0.29}}},{"type":"Feature","geometry":{"type":"Point","coordinates":[-93.99979,29.95744]},"properties":{"name":"City of Nederland Wastewater Treatment Plant","kind":"wastewater","city":"Nederland","src":"EPA ECHO / FRS","rid":"110000751598","exp":{"harvey_historical":0.0,"harvey_future":0.0,"rita_historical":0.0,"rita_future":0.0,"ike_historical":0.0,"ike_future":0.0}}},{"type":"Feature","geometry":{"type":"Point","coordinates":[-94.191944,30.208056]},"properties":{"name":"City of Beaumont Loeb Chlorination Facility","kind":"water","city":"Lumberton","src":"EPA ECHO / FRS","rid":"110000721014"}},{"type":"Feature","geometry":{"type":"Point","coordinates":[-93.921119,29.960368]},"properties":{"name":"City of Groves Wilson Water Treatment Plant","kind":"water","city":"Groves","src":"EPA ECHO / FRS","rid":"110030736933","exp":{"harvey_historical":0.0,"harvey_future":0.0,"rita_historical":0.0,"rita_future":0.0,"ike_historical":0.0,"ike_future":0.0},"pub":{"ike_historical":0.26,"rita_historical":0.26}}},{"type":"Feature","geometry":{"type":"Point","coordinates":[-93.970238,29.904472]},"properties":{"name":"City of Port Arthur Water Treatment Plant","kind":"water","city":"Port Arthur","src":"EPA ECHO / FRS","rid":"110071425924","exp":{"harvey_historical":0.0,"harvey_future":0.0,"rita_historical":0.0,"rita_future":2.09,"ike_historical":0.0,"ike_future":0.0}}},{"type":"Feature","geometry":{"type":"Point","coordinates":[-93.9516,29.9909]},"properties":{"name":"City of Port Neches Water Treatment Plant","kind":"water","city":"Port Neches","src":"EPA ECHO / FRS","rid":"110000711640","exp":{"harvey_historical":0.0,"harvey_future":0.0,"rita_historical":0.0,"rita_future":0.0,"ike_historical":0.0,"ike_future":0.0}}},{"type":"Feature","geometry":{"type":"Point","coordinates":[-94.133333,30.035]},"properties":{"name":"City of Beaumont Water Reclamation Plant","kind":"wastewater","city":"Beaumont","src":"EPA ECHO / FRS","rid":"110000505659","exp":{"harvey_historical":0.0,"harvey_future":0.0,"rita_historical":0.0,"rita_future":0.0,"ike_historical":0.0,"ike_future":0.0}}},{"type":"Feature","geometry":{"type":"Point","coordinates":[-93.887922,29.940989]},"properties":{"name":"Gulf Coast Water Reclamation Center WWTP","kind":"wastewater","city":"Port Arthur","src":"EPA ECHO / FRS","rid":"110009748005","exp":{"harvey_historical":0.0,"harvey_future":0.0,"rita_historical":0.0,"rita_future":0.94,"ike_historical":0.0,"ike_future":0.0},"pub":{"ike_historical":0.87,"rita_historical":0.36}}},{"type":"Feature","geometry":{"type":"Point","coordinates":[-94.333259,30.04791]},"properties":{"name":"Lower Neches Valley Authority China Yard","kind":"water","city":"China","src":"EPA ECHO / FRS","rid":"110008168268"}},{"type":"Feature","geometry":{"type":"Point","coordinates":[-94.100281,30.095517]},"properties":{"name":"City of Beaumont Water Production Plant","kind":"water","city":"Beaumont","src":"EPA ECHO / FRS","rid":"110000505864","exp":{"harvey_historical":0.0,"harvey_future":0.0,"rita_historical":0.0,"rita_future":0.0,"ike_historical":0.0,"ike_future":0.0}}},{"type":"Feature","geometry":{"type":"Point","coordinates":[-94.00627,29.980631]},"properties":{"name":"City of Nederland Water Treatment Plant","kind":"water","city":"Nederland","src":"EPA ECHO / FRS","rid":"110000501902","exp":{"harvey_historical":0.0,"harvey_future":0.0,"rita_historical":0.0,"rita_future":0.0,"ike_historical":0.0,"ike_future":0.0}}},{"type":"Feature","geometry":{"type":"Point","coordinates":[-94.294521,30.0643]},"properties":{"name":"TAMU Research & EXT CTR Beaumont WWTP","kind":"wastewater","city":"Beaumont","src":"EPA ECHO / FRS","rid":"110009780308"}},{"type":"Feature","geometry":{"type":"Point","coordinates":[-94.215086,30.239004]},"properties":{"name":"Lumberton Municipal Utility District","kind":"wastewater","city":"Lumberton","src":"EPA ECHO / FRS","rid":"110062500119"}},{"type":"Feature","geometry":{"type":"Point","coordinates":[-94.214444,30.233888]},"properties":{"name":"Lumberton Municipal Utility District","kind":"wastewater","city":"Lumberton","src":"EPA ECHO / FRS","rid":"110033723004"}},{"type":"Feature","geometry":{"type":"Point","coordinates":[-93.9351,29.89209]},"properties":{"name":"Diversified Environmental Services","kind":"water","city":"Port Arthur","src":"EPA ECHO / FRS","rid":"110069639528","exp":{"harvey_historical":0.0,"harvey_future":0.0,"rita_historical":0.0,"rita_future":2.29,"ike_historical":0.0,"ike_future":0.0},"pub":{"ike_historical":2.15,"rita_historical":0.3}}},{"type":"Feature","geometry":{"type":"Point","coordinates":[-94.221736,29.900547]},"properties":{"name":"Fannett Sewer Service & WSC WWTF","kind":"wastewater","city":"Beaumont","src":"EPA ECHO / FRS","rid":"110064612664"}},{"type":"Feature","geometry":{"type":"Point","coordinates":[-93.562408,30.19301]},"properties":{"name":"Vinton, Town Of- Treatment Plant","kind":"wastewater","city":"Vinton","src":"EPA ECHO / FRS","rid":"110011151671"}},{"type":"Feature","geometry":{"type":"Point","coordinates":[-94.061066,30.063425]},"properties":{"name":"North Regional Treatment Plant","kind":"wastewater","city":"Beaumont","src":"EPA ECHO / FRS","rid":"110000464140","exp":{"harvey_historical":0.0,"harvey_future":0.0,"rita_historical":0.0,"rita_future":0.0,"ike_historical":0.0,"ike_future":0.0},"pub":{"ike_historical":1.47}}},{"type":"Feature","geometry":{"type":"Point","coordinates":[-94.03254,29.92525]},"properties":{"name":"Phoenix Industrial Water Works","kind":"wastewater","city":"Port Arthur","src":"EPA ECHO / FRS","rid":"110054869282","exp":{"harvey_historical":0.0,"harvey_future":0.0,"rita_historical":0.0,"rita_future":1.77,"ike_historical":0.0,"ike_future":0.0},"pub":{"ike_historical":0.58,"rita_historical":0.08}}},{"type":"Feature","geometry":{"type":"Point","coordinates":[-93.883867,29.925242]},"properties":{"name":"City of Port Arthur Main WWTP","kind":"wastewater","city":"Port Arthur","src":"EPA ECHO / FRS","rid":"110064624973","exp":{"harvey_historical":0.0,"harvey_future":0.0,"rita_historical":0.0,"rita_future":0.58,"ike_historical":0.0,"ike_future":0.0},"pub":{"ike_historical":0.13,"rita_historical":0.13}}},{"type":"Feature","geometry":{"type":"Point","coordinates":[-93.886984,29.928556]},"properties":{"name":"City of Port Arthur Main WWTP","kind":"wastewater","city":"Port Arthur","src":"EPA ECHO / FRS","rid":"110000501163","exp":{"harvey_historical":0.0,"harvey_future":0.0,"rita_historical":0.0,"rita_future":1.28,"ike_historical":0.0,"ike_future":0.0},"pub":{"ike_historical":0.61,"rita_historical":0.02}}},{"type":"Feature","geometry":{"type":"Point","coordinates":[-94.02115,29.99427]},"properties":{"name":"Jefferson County WCID 10 WWTF","kind":"wastewater","city":"Nederland","src":"EPA ECHO / FRS","rid":"110006800934","exp":{"harvey_historical":0.0,"harvey_future":0.0,"rita_historical":0.0,"rita_future":0.0,"ike_historical":0.0,"ike_future":0.0},"pub":{"ike_historical":0.21,"rita_historical":0.16}}},{"type":"Feature","geometry":{"type":"Point","coordinates":[-94.145774,30.084343]},"properties":{"name":"Lower Neches Valley Authority","kind":"water","city":"Beaumont","src":"EPA ECHO / FRS","rid":"110008160756","exp":{"harvey_historical":0.0,"harvey_future":0.0,"rita_historical":0.0,"rita_future":0.0,"ike_historical":0.0,"ike_future":0.0},"pub":{"ike_historical":0.78,"rita_historical":0.22}}},{"type":"Feature","geometry":{"type":"Point","coordinates":[-94.03671,29.91424]},"properties":{"name":"Port Acres Wastewater Plant","kind":"wastewater","city":"Port Arthur","src":"EPA ECHO / FRS","rid":"110000705274","exp":{"harvey_historical":0.0,"harvey_future":0.0,"rita_historical":0.0,"rita_future":2.34,"ike_historical":0.0,"ike_future":0.0},"pub":{"ike_historical":1.05,"rita_historical":0.2}}},{"type":"Feature","geometry":{"type":"Point","coordinates":[-94.171197,30.143732]},"properties":{"name":"Neches 2nd Pumping Station","kind":"pump","city":"Beaumont","src":"EPA ECHO / FRS","rid":"110071987776","exp":{"harvey_historical":0.0,"harvey_future":0.0,"rita_historical":0.0,"rita_future":0.0,"ike_historical":0.0,"ike_future":0.0}}},{"type":"Feature","geometry":{"type":"Point","coordinates":[-94.314649,30.165754]},"properties":{"name":"Hardin County WCID 1 WWTP","kind":"wastewater","city":"Sour Lake","src":"EPA ECHO / FRS","rid":"110010654121"}},{"type":"Feature","geometry":{"type":"Point","coordinates":[-94.00989,30.1293]},"properties":{"name":"Oak Lane Tiger Creek WWTF","kind":"wastewater","city":"Vidor","src":"EPA ECHO / FRS","rid":"110009747694","exp":{"harvey_historical":0.0,"harvey_future":0.0,"rita_historical":0.0,"rita_future":0.0,"ike_historical":0.0,"ike_future":0.0},"pub":{"ike_historical":1.49,"rita_historical":1.48}}},{"type":"Feature","geometry":{"type":"Point","coordinates":[-93.930229,30.135349]},"properties":{"name":"Parkview Subdivision WWTP","kind":"wastewater","city":"Orange","src":"EPA ECHO / FRS","rid":"110009777946"}},{"type":"Feature","geometry":{"type":"Point","coordinates":[-93.809478,30.110992]},"properties":{"name":"Richard Drive Water Plant","kind":"water","city":"Orange","src":"EPA ECHO / FRS","rid":"110071448859","exp":{"harvey_historical":0.0,"harvey_future":0.0,"rita_historical":0.0,"rita_future":0.0,"ike_historical":0.0,"ike_future":0.0}}},{"type":"Feature","geometry":{"type":"Point","coordinates":[-94.032792,29.951012]},"properties":{"name":"Countryside Estates WWTP","kind":"wastewater","city":"Nederland","src":"EPA ECHO / FRS","rid":"110009778543","exp":{"harvey_historical":0.0,"harvey_future":0.0,"rita_historical":0.0,"rita_future":0.0,"ike_historical":0.0,"ike_future":0.0},"pub":{"ike_historical":0.0,"rita_historical":0.0}}},{"type":"Feature","geometry":{"type":"Point","coordinates":[-94.154716,30.166389]},"properties":{"name":"Neches 1 Pumping Station","kind":"pump","city":"Beaumont","src":"EPA ECHO / FRS","rid":"110041038445"}},{"type":"Feature","geometry":{"type":"Point","coordinates":[-94.025555,29.975423]},"properties":{"name":"Alpha Recovery Services","kind":"wastewater","city":"Nederland","src":"EPA ECHO / FRS","rid":"110071214737","exp":{"harvey_historical":0.0,"harvey_future":0.0,"rita_historical":0.0,"rita_future":0.0,"ike_historical":0.0,"ike_future":0.0}}},{"type":"Feature","geometry":{"type":"Point","coordinates":[-93.753863,30.054796]},"properties":{"name":"Sabine River Operations","kind":"water","city":"Orange","src":"EPA ECHO / FRS","rid":"110017746368","exp":{"harvey_historical":0.0,"harvey_future":0.0,"rita_historical":0.0,"rita_future":0.0,"ike_historical":0.0,"ike_future":0.0},"pub":{"ike_historical":0.83,"rita_historical":0.23}}},{"type":"Feature","geometry":{"type":"Point","coordinates":[-94.224598,30.129763]},"properties":{"name":"BI 2nd Pumping Station","kind":"pump","city":"Beaumont","src":"EPA ECHO / FRS","rid":"110071987777","exp":{"harvey_historical":0.0,"harvey_future":0.0,"rita_historical":0.0,"rita_future":0.0,"ike_historical":0.0,"ike_future":0.0}}},{"type":"Feature","geometry":{"type":"Point","coordinates":[-93.789228,30.054607]},"properties":{"name":"Lion Elastomers Orange","kind":"water","city":"Orange","src":"EPA ECHO / FRS","rid":"110064446531","exp":{"harvey_historical":0.0,"harvey_future":0.0,"rita_historical":0.0,"rita_future":0.26,"ike_historical":0.0,"ike_future":0.0},"pub":{"ike_historical":0.79}}},{"type":"Feature","geometry":{"type":"Point","coordinates":[-93.807221,30.227341]},"properties":{"name":"Mauriceville MUD WWTP","kind":"wastewater","city":"Mauriceville","src":"EPA ECHO / FRS","rid":"110064619319"}},{"type":"Feature","geometry":{"type":"Point","coordinates":[-94.19187,30.1717]},"properties":{"name":"BI 1st Pumping Plant","kind":"pump","city":"Beaumont","src":"EPA ECHO / FRS","rid":"110001870306"}},{"type":"Feature","geometry":{"type":"Point","coordinates":[-94.2159,30.2305]},"properties":{"name":"Lumberton MUD WWTP 2","kind":"wastewater","city":"Lumberton","src":"EPA ECHO / FRS","rid":"110000721924"}},{"type":"Feature","geometry":{"type":"Point","coordinates":[-93.847815,30.073914]},"properties":{"name":"Orangefield WSC WWTF","kind":"wastewater","city":"Orangefield","src":"EPA ECHO / FRS","rid":"110027991902","exp":{"harvey_historical":0.0,"harvey_future":0.0,"rita_historical":0.0,"rita_future":0.0,"ike_historical":0.0,"ike_future":0.0},"pub":{"ike_historical":2.64,"rita_historical":0.33}}},{"type":"Feature","geometry":{"type":"Point","coordinates":[-93.74158,30.086068]},"properties":{"name":"Jackson Street WWTP","kind":"wastewater","city":"Orange","src":"EPA ECHO / FRS","rid":"110000736008","exp":{"harvey_historical":0.0,"harvey_future":0.0,"rita_historical":0.0,"rita_future":0.22,"ike_historical":0.0,"ike_future":0.0},"pub":{"ike_historical":1.08}}},{"type":"Feature","geometry":{"type":"Point","coordinates":[-94.143473,29.87442]},"properties":{"name":"Taylor Landing WWTP","kind":"wastewater","city":"Taylor Landing","src":"EPA ECHO / FRS","rid":"110009779034"}},{"type":"Feature","geometry":{"type":"Point","coordinates":[-94.335167,30.02575]},"properties":{"name":"City of China WWTF","kind":"wastewater","city":"China","src":"EPA ECHO / FRS","rid":"110071710750"}},{"type":"Feature","geometry":{"type":"Point","coordinates":[-93.74875,30.154083]},"properties":{"name":"Cypress Bayou WWTP","kind":"wastewater","city":"Orange","src":"EPA ECHO / FRS","rid":"110010922546","exp":{"harvey_historical":0.0,"harvey_future":0.0,"rita_historical":0.0,"rita_future":0.0,"ike_historical":0.0,"ike_future":0.0}}},{"type":"Feature","geometry":{"type":"Point","coordinates":[-94.18505,30.13323]},"properties":{"name":"Springwood Phase 2","kind":"water","city":"Beaumont","src":"EPA ECHO / FRS","rid":"110021138240","exp":{"harvey_historical":0.0,"harvey_future":0.0,"rita_historical":0.0,"rita_future":0.0,"ike_historical":0.0,"ike_future":0.0}}},{"type":"Feature","geometry":{"type":"Point","coordinates":[-93.760972,30.160194]},"properties":{"name":"Chase Hollow WWTP","kind":"wastewater","city":"Orange","src":"EPA ECHO / FRS","rid":"110009775289"}},{"type":"Feature","geometry":{"type":"Point","coordinates":[-93.74365,30.106881]},"properties":{"name":"Link Street Plant","kind":"water","city":"Orange","src":"EPA ECHO / FRS","rid":"110000503349","exp":{"harvey_historical":0.0,"harvey_future":0.0,"rita_historical":0.0,"rita_future":0.0,"ike_historical":0.0,"ike_future":0.0}}},{"type":"Feature","geometry":{"type":"Point","coordinates":[-93.75677,30.14411]},"properties":{"name":"Meeks Drive Plant","kind":"water","city":"Orange","src":"EPA ECHO / FRS","rid":"110000503330","exp":{"harvey_historical":0.0,"harvey_future":0.0,"rita_historical":0.0,"rita_future":0.0,"ike_historical":0.0,"ike_future":0.0},"pub":{"ike_historical":0.26,"rita_historical":0.2}}},{"type":"Feature","geometry":{"type":"Point","coordinates":[-93.821,30.057417]},"properties":{"name":"Bridge City WWTP","kind":"wastewater","city":"Bridge City","src":"EPA ECHO / FRS","rid":"110009773245","exp":{"harvey_historical":0.0,"harvey_future":0.0,"rita_historical":0.0,"rita_future":0.0,"ike_historical":0.0,"ike_future":0.0},"pub":{"ike_historical":0.43,"rita_historical":0.05}}},{"type":"Feature","geometry":{"type":"Point","coordinates":[-94.0282,30.19937]},"properties":{"name":"Brookhollow WWTP","kind":"wastewater","city":"Vidor","src":"EPA ECHO / FRS","rid":"110039169208"}},{"type":"Feature","geometry":{"type":"Point","coordinates":[-94.015782,30.100262]},"properties":{"name":"Clover Leaf WWTF","kind":"wastewater","city":"Vidor","src":"EPA ECHO / FRS","rid":"110010131044","exp":{"harvey_historical":0.0,"harvey_future":0.0,"rita_historical":0.0,"rita_future":0.0,"ike_historical":0.0,"ike_future":0.0},"pub":{"ike_historical":1.5,"rita_historical":1.3}}},{"type":"Feature","geometry":{"type":"Point","coordinates":[-93.89485,29.91313]},"properties":{"name":"Sabine Pass WWTF","kind":"wastewater","city":"Port Arthur","src":"EPA ECHO / FRS","rid":"110009781263","exp":{"harvey_historical":0.0,"harvey_future":0.0,"rita_historical":0.0,"rita_future":1.83,"ike_historical":0.0,"ike_future":0.0},"pub":{"ike_historical":1.44,"rita_historical":0.47}}},{"type":"Feature","geometry":{"type":"Point","coordinates":[-93.745194,30.084806]},"properties":{"name":"West Orange WWTP","kind":"wastewater","city":"West Orange","src":"EPA ECHO / FRS","rid":"110039703728","exp":{"harvey_historical":0.0,"harvey_future":0.0,"rita_historical":0.0,"rita_future":1.17,"ike_historical":0.0,"ike_future":0.0},"pub":{"ike_historical":1.33}}},{"type":"Feature","geometry":{"type":"Point","coordinates":[-94.125722,29.872972]},"properties":{"name":"Belle Oaks WWTP","kind":"wastewater","city":"Jefferson County","src":"EPA ECHO / FRS","rid":"110009773682"}},{"type":"Feature","geometry":{"type":"Point","coordinates":[-94.263956,30.166204]},"properties":{"name":"Bevil Oaks WWTP","kind":"wastewater","city":"Beaumont","src":"EPA ECHO / FRS","rid":"110039880368"}},{"type":"Feature","geometry":{"type":"Point","coordinates":[-94.025782,30.156093]},"properties":{"name":"Tiger Lake WWTF","kind":"wastewater","city":"Vidor","src":"EPA ECHO / FRS","rid":"110009773664","exp":{"harvey_historical":0.0,"harvey_future":0.0,"rita_historical":0.0,"rita_future":0.0,"ike_historical":0.0,"ike_future":0.0}}},{"type":"Feature","geometry":{"type":"Point","coordinates":[-93.91753,29.96066]},"properties":{"name":"City of Groves","kind":"water","city":"Groves","src":"EPA ECHO / FRS","rid":"110034371043","exp":{"harvey_historical":0.0,"harvey_future":0.0,"rita_historical":0.0,"rita_future":0.0,"ike_historical":0.0,"ike_future":0.0},"pub":{"ike_historical":0.13,"rita_historical":0.12}}},{"type":"Feature","geometry":{"type":"Point","coordinates":[-93.764657,30.100825]},"properties":{"name":"Pinehurst WWTP","kind":"wastewater","city":"Orange","src":"EPA ECHO / FRS","rid":"110039693533","exp":{"harvey_historical":0.0,"harvey_future":0.0,"rita_historical":0.0,"rita_future":0.0,"ike_historical":0.0,"ike_future":0.0},"pub":{"ike_historical":0.12}}},{"type":"Feature","geometry":{"type":"Point","coordinates":[-94.309333,29.875472]},"properties":{"name":"Hamshire WWTP","kind":"wastewater","city":"Hamshire","src":"EPA ECHO / FRS","rid":"110009772843"}},{"type":"Feature","geometry":{"type":"Point","coordinates":[-94.031278,30.130472]},"properties":{"name":"Oak Lane WWTP","kind":"wastewater","city":"Vidor","src":"EPA ECHO / FRS","rid":"110009781389","exp":{"harvey_historical":0.0,"harvey_future":0.0,"rita_historical":0.0,"rita_future":0.0,"ike_historical":0.0,"ike_future":0.0},"pub":{"ike_historical":0.65,"rita_historical":0.19}}},{"type":"Feature","geometry":{"type":"Point","coordinates":[-94.06111,30.09798]},"properties":{"name":"Rose City WTP","kind":"water","city":"Rose City","src":"EPA ECHO / FRS","rid":"110071514646","exp":{"harvey_historical":0.0,"harvey_future":0.0,"rita_historical":0.0,"rita_future":0.09,"ike_historical":0.0,"ike_future":0.0},"pub":{"ike_historical":0.27}}},{"type":"Feature","geometry":{"type":"Point","coordinates":[-94.219323,29.989271]},"properties":{"name":"RA-TE WWTP","kind":"wastewater","city":"Beaumont","src":"EPA ECHO / FRS","rid":"110009775270","exp":{"harvey_historical":0.0,"harvey_future":0.0,"rita_historical":0.0,"rita_future":0.0,"ike_historical":0.0,"ike_future":0.0},"pub":{"ike_historical":0.32,"rita_historical":0.3}}},{"type":"Feature","geometry":{"type":"Point","coordinates":[-94.270835,30.159036]},"properties":{"name":"Water Treatment Plant","kind":"water","city":"","src":"OpenStreetMap","rid":""}},{"type":"Feature","geometry":{"type":"Point","coordinates":[-94.266815,30.135285]},"properties":{"name":"Aqua Plus Water","kind":"water","city":"","src":"OpenStreetMap","rid":""}},{"type":"Feature","geometry":{"type":"Point","coordinates":[-93.884752,29.939898]},"properties":{"name":"Wastewater treatment plant (unnamed)","kind":"wastewater","city":"","src":"OpenStreetMap","rid":"","exp":{"harvey_historical":0.0,"harvey_future":0.0,"rita_historical":0.0,"rita_future":0.58,"ike_historical":0.0,"ike_future":0.0},"pub":{"ike_historical":0.25}}},{"type":"Feature","geometry":{"type":"Point","coordinates":[-93.852822,30.073476]},"properties":{"name":"Wastewater treatment plant (unnamed)","kind":"wastewater","city":"","src":"OpenStreetMap","rid":"","exp":{"harvey_historical":0.0,"harvey_future":0.0,"rita_historical":0.0,"rita_future":0.0,"ike_historical":0.0,"ike_future":0.0}}},{"type":"Feature","geometry":{"type":"Point","coordinates":[-93.921145,29.960433]},"properties":{"name":"Wastewater treatment plant (unnamed)","kind":"wastewater","city":"","src":"OpenStreetMap","rid":"","exp":{"harvey_historical":0.0,"harvey_future":0.0,"rita_historical":0.0,"rita_future":0.0,"ike_historical":0.0,"ike_future":0.0},"pub":{"ike_historical":0.26,"rita_historical":0.26}}},{"type":"Feature","geometry":{"type":"Point","coordinates":[-94.126886,30.030113]},"properties":{"name":"Wastewater treatment plant (unnamed)","kind":"wastewater","city":"","src":"OpenStreetMap","rid":"","exp":{"harvey_historical":0.0,"harvey_future":0.0,"rita_historical":0.0,"rita_future":0.0,"ike_historical":0.0,"ike_future":0.0}}},{"type":"Feature","geometry":{"type":"Point","coordinates":[-93.970953,29.904652]},"properties":{"name":"Wastewater treatment plant (unnamed)","kind":"wastewater","city":"","src":"OpenStreetMap","rid":"","exp":{"harvey_historical":0.0,"harvey_future":0.0,"rita_historical":0.0,"rita_future":2.33,"ike_historical":0.0,"ike_future":0.0}}},{"type":"Feature","geometry":{"type":"Point","coordinates":[-93.878333,29.933663]},"properties":{"name":"Wastewater treatment plant (unnamed)","kind":"wastewater","city":"","src":"OpenStreetMap","rid":"","exp":{"harvey_historical":0.0,"harvey_future":0.0,"rita_historical":0.0,"rita_future":0.92,"ike_historical":0.0,"ike_future":0.0},"pub":{"ike_historical":0.51}}}]}